CCSDS_OMM_VERS = 2.0
CREATION_DATE  = 
ORIGINATOR     = 

OBJECT_NAME    = ISS OBJECT XW
OBJECT_ID      = 1998-067XW
CENTER_NAME    = EARTH
REF_FRAME      = TEME
TIME_SYSTEM    = UTC
MEAN_ELEMENT_THEORY = SGP/SGP4

EPOCH          = 2026-03-01T03:51:46.068768
MEAN_MOTION    = 15.66060895
ECCENTRICITY   = .00047291
INCLINATION    = 51.6245
RA_OF_ASC_NODE = 108.9438
ARG_OF_PERICENTER = 40.5266
MEAN_ANOMALY   = 319.6081

EPHEMERIS_TYPE = 0
CLASSIFICATION_TYPE = U
NORAD_CAT_ID   = 66910
ELEMENT_SET_NO = 999
REV_AT_EPOCH   = 1384
BSTAR          = .1106529E-2
MEAN_MOTION_DOT = .11682E-2
MEAN_MOTION_DDOT = 0

CCSDS_OMM_VERS = 2.0
CREATION_DATE  = 
ORIGINATOR     = 

OBJECT_NAME    = ISS OBJECT XX
OBJECT_ID      = 1998-067XX
CENTER_NAME    = EARTH
REF_FRAME      = TEME
TIME_SYSTEM    = UTC
MEAN_ELEMENT_THEORY = SGP/SGP4

EPOCH          = 2026-02-28T04:14:04.585344
MEAN_MOTION    = 15.70701974
ECCENTRICITY   = .00067241
INCLINATION    = 51.6224
RA_OF_ASC_NODE = 112.8607
ARG_OF_PERICENTER = 29.6509
MEAN_ANOMALY   = 330.4869

EPHEMERIS_TYPE = 0
CLASSIFICATION_TYPE = U
NORAD_CAT_ID   = 66911
ELEMENT_SET_NO = 999
REV_AT_EPOCH   = 1369
BSTAR          = .14258097E-2
MEAN_MOTION_DOT = .18393E-2
MEAN_MOTION_DDOT = 0

CCSDS_OMM_VERS = 2.0
CREATION_DATE  = 
ORIGINATOR     = 

OBJECT_NAME    = ISS OBJECT XY
OBJECT_ID      = 1998-067XY
CENTER_NAME    = EARTH
REF_FRAME      = TEME
TIME_SYSTEM    = UTC
MEAN_ELEMENT_THEORY = SGP/SGP4

EPOCH          = 2026-02-28T10:29:17.107584
MEAN_MOTION    = 15.61844218
ECCENTRICITY   = .00025977
INCLINATION    = 51.6274
RA_OF_ASC_NODE = 113.8728
ARG_OF_PERICENTER = 40.6727
MEAN_ANOMALY   = 319.4460

EPHEMERIS_TYPE = 0
CLASSIFICATION_TYPE = U
NORAD_CAT_ID   = 66912
ELEMENT_SET_NO = 999
REV_AT_EPOCH   = 1370
BSTAR          = .84274979E-3
MEAN_MOTION_DOT = .74749E-3
MEAN_MOTION_DDOT = 0

CCSDS_OMM_VERS = 2.0
CREATION_DATE  = 
ORIGINATOR     = 

OBJECT_NAME    = ISS OBJECT XZ
OBJECT_ID      = 1998-067XZ
CENTER_NAME    = EARTH
REF_FRAME      = TEME
TIME_SYSTEM    = UTC
MEAN_ELEMENT_THEORY = SGP/SGP4

EPOCH          = 2026-03-01T03:51:17.363232
MEAN_MOTION    = 15.51054892
ECCENTRICITY   = .00096536
INCLINATION    = 51.6321
RA_OF_ASC_NODE = 114.2060
ARG_OF_PERICENTER = 157.7357
MEAN_ANOMALY   = 202.4053

EPHEMERIS_TYPE = 0
CLASSIFICATION_TYPE = U
NORAD_CAT_ID   = 67683
ELEMENT_SET_NO = 999
REV_AT_EPOCH   = 346
BSTAR          = .65168236E-3
MEAN_MOTION_DOT = .384E-3
MEAN_MOTION_DDOT = 0

CCSDS_OMM_VERS = 2.0
CREATION_DATE  = 
ORIGINATOR     = 

OBJECT_NAME    = GXIBA-1
OBJECT_ID      = 1998-067YA
CENTER_NAME    = EARTH
REF_FRAME      = TEME
TIME_SYSTEM    = UTC
MEAN_ELEMENT_THEORY = SGP/SGP4

EPOCH          = 2026-02-28T10:29:21.411168
MEAN_MOTION    = 15.52723154
ECCENTRICITY   = .00110764
INCLINATION    = 51.6306
RA_OF_ASC_NODE = 117.6242
ARG_OF_PERICENTER = 146.1897
MEAN_ANOMALY   = 213.9801

EPHEMERIS_TYPE = 0
CLASSIFICATION_TYPE = U
NORAD_CAT_ID   = 67684
ELEMENT_SET_NO = 999
REV_AT_EPOCH   = 335
BSTAR          = .10101779E-2
MEAN_MOTION_DOT = .63733E-3
MEAN_MOTION_DDOT = 0

CCSDS_OMM_VERS = 2.0
CREATION_DATE  = 
ORIGINATOR     = 

OBJECT_NAME    = CORAL
OBJECT_ID      = 1998-067YB
CENTER_NAME    = EARTH
REF_FRAME      = TEME
TIME_SYSTEM    = UTC
MEAN_ELEMENT_THEORY = SGP/SGP4

EPOCH          = 2026-02-28T09:14:14.098560
MEAN_MOTION    = 15.51261455
ECCENTRICITY   = .00116358
INCLINATION    = 51.6317
RA_OF_ASC_NODE = 118.0258
ARG_OF_PERICENTER = 150.9862
MEAN_ANOMALY   = 209.1777

EPHEMERIS_TYPE = 0
CLASSIFICATION_TYPE = U
NORAD_CAT_ID   = 67685
ELEMENT_SET_NO = 999
REV_AT_EPOCH   = 334
BSTAR          = .66081584E-3
MEAN_MOTION_DOT = .39273E-3
MEAN_MOTION_DDOT = 0

CCSDS_OMM_VERS = 2.0
CREATION_DATE  = 
ORIGINATOR     = 

OBJECT_NAME    = ISS OBJECT YC
OBJECT_ID      = 1998-067YC
CENTER_NAME    = EARTH
REF_FRAME      = TEME
TIME_SYSTEM    = UTC
MEAN_ELEMENT_THEORY = SGP/SGP4

EPOCH          = 2026-03-01T03:42:59.523840
MEAN_MOTION    = 15.51697648
ECCENTRICITY   = .00076319
INCLINATION    = 51.6315
RA_OF_ASC_NODE = 114.1689
ARG_OF_PERICENTER = 121.5200
MEAN_ANOMALY   = 238.6536

EPHEMERIS_TYPE = 0
CLASSIFICATION_TYPE = U
NORAD_CAT_ID   = 67686
ELEMENT_SET_NO = 999
REV_AT_EPOCH   = 346
BSTAR          = .83155921E-3
MEAN_MOTION_DOT = .5032E-3
MEAN_MOTION_DDOT = 0

CCSDS_OMM_VERS = 2.0
CREATION_DATE  = 
ORIGINATOR     = 

OBJECT_NAME    = LEOPARD
OBJECT_ID      = 1998-067YD
CENTER_NAME    = EARTH
REF_FRAME      = TEME
TIME_SYSTEM    = UTC
MEAN_ELEMENT_THEORY = SGP/SGP4

EPOCH          = 2026-03-01T03:49:08.265216
MEAN_MOTION    = 15.51184896
ECCENTRICITY   = .00076658
INCLINATION    = 51.6314
RA_OF_ASC_NODE = 114.1963
ARG_OF_PERICENTER = 125.9436
MEAN_ANOMALY   = 234.2266

EPHEMERIS_TYPE = 0
CLASSIFICATION_TYPE = U
NORAD_CAT_ID   = 67687
ELEMENT_SET_NO = 999
REV_AT_EPOCH   = 338
BSTAR          = .67110821E-3
MEAN_MOTION_DOT = .39724E-3
MEAN_MOTION_DDOT = 0

CCSDS_OMM_VERS = 2.0
CREATION_DATE  = 
ORIGINATOR     = 

OBJECT_NAME    = ISS OBJECT YE
OBJECT_ID      = 1998-067YE
CENTER_NAME    = EARTH
REF_FRAME      = TEME
TIME_SYSTEM    = UTC
MEAN_ELEMENT_THEORY = SGP/SGP4

EPOCH          = 2026-03-01T03:44:55.426848
MEAN_MOTION    = 15.51525698
ECCENTRICITY   = .00075959
INCLINATION    = 51.6321
RA_OF_ASC_NODE = 114.1774
ARG_OF_PERICENTER = 122.8780
MEAN_ANOMALY   = 237.2942

EPHEMERIS_TYPE = 0
CLASSIFICATION_TYPE = U
NORAD_CAT_ID   = 67688
ELEMENT_SET_NO = 999
REV_AT_EPOCH   = 338
BSTAR          = .76911585E-3
MEAN_MOTION_DOT = .46194E-3
MEAN_MOTION_DDOT = 0

CCSDS_OMM_VERS = 2.0
CREATION_DATE  = 
ORIGINATOR     = 

OBJECT_NAME    = CREW DRAGON 12
OBJECT_ID      = 2026-031A
CENTER_NAME    = EARTH
REF_FRAME      = TEME
TIME_SYSTEM    = UTC
MEAN_ELEMENT_THEORY = SGP/SGP4

EPOCH          = 2026-03-01T04:30:39.493440
MEAN_MOTION    = 15.48374594
ECCENTRICITY   = .00082926
INCLINATION    = 51.6323
RA_OF_ASC_NODE = 114.3864
ARG_OF_PERICENTER = 144.7575
MEAN_ANOMALY   = 215.3963

EPHEMERIS_TYPE = 0
CLASSIFICATION_TYPE = U
NORAD_CAT_ID   = 67796
ELEMENT_SET_NO = 999
REV_AT_EPOCH   = 55475
BSTAR          = .18154647E-3
MEAN_MOTION_DOT = .9357E-4
MEAN_MOTION_DDOT = 0

